{
  "type": "FeatureCollection",
  "features": [
    {
      "type": "Feature",
      "properties": {
        "norad_id": 54259,
        "name": "EUTELSAT 10B",
        "group": "eutelsat",
        "lat": 0.053589184654195834,
        "lon": -173.717942952487,
        "alt_km": 35785.42974111945,
        "timestamp": "2025-12-21T05:44:51.247548+00:00",
        "meta_object_name": "EUTELSAT 10B",
        "meta_object_id": "2022-157A",
        "meta_epoch": "2025-12-20T21:50:17.562336",
        "meta_mean_motion": 1.00272741,
        "meta_eccentricity": 7.541e-05,
        "meta_inclination": 0.0618,
        "meta_ra_of_asc_node": 96.6083,
        "meta_arg_of_pericenter": 6.1129,
        "meta_mean_anomaly": 324.5944,
        "meta_ephemeris_type": 0,
        "meta_classification_type": "U",
        "meta_norad_cat_id": 54259,
        "meta_element_set_no": 999,
        "meta_rev_at_epoch": 1123,
        "meta_bstar": 0,
        "meta_mean_motion_dot": 9.2e-07,
        "meta_mean_motion_ddot": 0,
        "tle_line1": "1 54259U 22157A   25354.90992549  .00000092  00000+0  00000+0 0  9997",
        "tle_line2": "2 54259   0.0618  96.6083 0000754   6.1129 324.5944  1.00272741 11231"
      },
      "geometry": {
        "type": "Point",
        "coordinates": [
          -173.717942952487,
          0.053589184654195834
        ]
      }
    },
    {
      "type": "Feature",
      "properties": {
        "norad_id": 59346,
        "name": "EUTELSAT 36D",
        "group": "eutelsat",
        "lat": -0.013504121053099526,
        "lon": -147.88384153298904,
        "alt_km": 35786.51112644823,
        "timestamp": "2025-12-21T05:44:51.247559+00:00",
        "meta_object_name": "EUTELSAT 36D",
        "meta_object_id": "2024-059A",
        "meta_epoch": "2025-12-20T21:57:39.356640",
        "meta_mean_motion": 1.0027453,
        "meta_eccentricity": 3.793e-05,
        "meta_inclination": 0.0243,
        "meta_ra_of_asc_node": 25.2957,
        "meta_arg_of_pericenter": 328.0325,
        "meta_mean_anomaly": 101.6767,
        "meta_ephemeris_type": 0,
        "meta_classification_type": "U",
        "meta_norad_cat_id": 59346,
        "meta_element_set_no": 999,
        "meta_rev_at_epoch": 636,
        "meta_bstar": 0,
        "meta_mean_motion_dot": 0,
        "meta_mean_motion_ddot": 0,
        "tle_line1": "1 59346U 24059A   25354.91503885  .00000000  00000+0  00000+0 0  9993",
        "tle_line2": "2 59346   0.0243  25.2957 0000379 328.0325 101.6767  1.00274530  6365"
      },
      "geometry": {
        "type": "Point",
        "coordinates": [
          -147.88384153298904,
          -0.013504121053099526
        ]
      }
    }
  ]
}